ONEWEB-0597             
1 54663U 22166X   25171.38200728 -.00000060  00000+0 -17571-3 0  9998
2 54663  87.9267 316.1520 0001686  98.6383 261.4942 13.21824735123742
ONEWEB-0600             
1 54664U 22166Y   25171.66742997  .00000145  00000+0  31856-3 0  9993
2 54664  87.9247 316.0976 0001745 101.7932 258.3398 13.21827656123753
ONEWEB-0601             
1 54665U 22166Z   25171.65953938  .00000044  00000+0  75037-4 0  9990
2 54665  87.9268 316.1077 0001475  94.8015 265.3287 13.21827286123949
ONEWEB-0602             
1 54666U 22166AA  25171.70055707  .00000008  00000+0 -11584-4 0  9992
2 54666  87.9267 316.1002 0001646 103.2962 256.8356 13.21826883123790
ONEWEB-0603             
1 54667U 22166AB  25171.40250247  .00000011  00000+0 -56179-5 0  9990
2 54667  87.9241 316.1045 0001560  98.4170 261.7141 13.21826088123683
ONEWEB-0604             
1 54668U 22166AC  25171.69265731  .00000041  00000+0  68657-4 0  9991
2 54668  87.9261 316.0625 0001673 102.7910 257.3411 13.21827440123689
ONEWEB-0605             
1 54669U 22166AD  25171.68635969  .00000063  00000+0  12006-3 0  9995
2 54669  87.9262 316.0943 0001347  80.0026 280.1260 13.21826746123750
ONEWEB-0606             
1 54670U 22166AE  25171.63273445  .00000023  00000+0  23358-4 0  9998
2 54670  87.9267 316.1160 0002042  96.7739 263.3627 13.21827546123802
